ACS3                    
1 59588U 24077B   24155.49386795  .00000043  00000+0  84913-4 0  9998
2 59588  97.4063 226.8543 0021391 129.9436 230.3599 13.67682611  5531
